[{"OBJECT_NAME":"YAOGAN-16 01A","OBJECT_ID":"2012-066A","EPOCH":"2026-03-09T15:56:06.912096","MEAN_MOTION":13.45503182,"ECCENTRICITY":0.04275422,"INCLINATION":63.3548,"RA_OF_ASC_NODE":186.8334,"ARG_OF_PERICENTER":26.2866,"MEAN_ANOMALY":335.9185,"EPHEMERIS_TYPE":0,"CLASSIFICATION_TYPE":"U","NORAD_CAT_ID":39011,"ELEMENT_SET_NO":999,"REV_AT_EPOCH":65275,"BSTAR":6.3438276e-5,"MEAN_MOTION_DOT":-2.6e-7,"MEAN_MOTION_DDOT":0},{"OBJECT_NAME":"NOAA 16 DEB","OBJECT_ID":"2000-055DX","EPOCH":"2026-03-09T03:40:08.573664","MEAN_MOTION":14.44398557,"ECCENTRICITY":0.00392603,"INCLINATION":98.7823,"RA_OF_ASC_NODE":181.5115,"ARG_OF_PERICENTER":216.2094,"MEAN_ANOMALY":143.6437,"EPHEMERIS_TYPE":0,"CLASSIFICATION_TYPE":"U","NORAD_CAT_ID":41218,"ELEMENT_SET_NO":999,"REV_AT_EPOCH":53086,"BSTAR":0.0035564115,"MEAN_MOTION_DOT":0.00012345,"MEAN_MOTION_DDOT":0}]
